#dP2024  1 27  0  0  0.00000000      97 __u+U IGS20 FIT  IAC
## 2298 518400.00000000   900.00000000 60336 0.0000000000000
+  118   C06C07C08C09C10C11C12C13C14C16C19C20C21C22C23C24C25
+        C26C27C28C29C30C32C33C34C35C36C37C38C39C40C41C42C43
+        C44C45C46E02E03E04E05E07E08E09E10E11E12E13E14E15E18
+        E19E21E24E25E26E27E30E31E33E34E36G01G02G03G04G06G07
+        G08G09G10G11G12G13G14G15G16G17G18G19G20G21G22G23G24
+        G25G26G28G29G30G31G32J02J03J04R01R02R03R04R05R07R08
+        R09R11R12R13R14R15R16R17R18R19R20R21R22R24R25R26  0
++         7  7  7  7  7  6  7  7  6  7  6  5  6  6  6  5  6
++         5  6  6  5  6  6  5  6  6  6  6  6  6  6  6  5  6
++         6  6  6  4  4  4  4  4  4  4  4  4  4  4  4  4  4
++         4  4  4  4  4  4  4  4  4  5  4  3  3  3  3  3  3
++         4  3  3  3  3  4  3  4  4  3  3  3  3  4  3  3  3
++         3  3  3  4  3  3  3  9  9  9  7  6  7  6  6  6  6
++         6  7  7  8  7  7  6  6  6  7  7  7  7  6  8  8  0
%c M  cc GPS ccc cccc cccc cccc cccc ccccc ccccc ccccc ccccc
%c cc cc ccc ccc cccc cccc cccc cccc ccccc ccccc ccccc ccccc
%f  1.2500000  1.025000000  0.00000000000  0.000000000000000
%f  0.0000000  0.000000000  0.00000000000  0.000000000000000
%i    0    0    0    0      0      0      0      0         0
%i    0    0    0    0      0      0      0      0         0
/* INFORMATION & ANALYSIS CENTER (IAC)            FINAL DATA
/* S/V CLOCKS ARE ALIGNED TO GNSS TIME                      
/* G:C1WC2W R:C1PC2P E:C1XC5X C:C2IC6I J:C1CC2S             
/* PCV:IGS20_2290 OL/AL:FES2004  NONE     YN ORB:CoN CLK:CoN
*  2024 01 27 16 45  0.00000000
PC06 -19267.659786  29028.477374 -23916.223793     73.383806
PC07  -6233.996307  40009.456944 -11263.901122   -705.667602
PC08   -972.131189  22392.154953  35743.892766     82.418118
PC09 -10465.094898  27863.957582 -29659.048980   -409.689312
PC10   -651.779939  41481.739654  -5274.501232    109.178036
PC11  17916.236851 -20959.007841  -4248.261551    379.854116
PC12  22525.324305  -9339.279468  13609.735251    784.960296
PC13   7222.165114  26360.813080  32366.070650    411.767290
PC14   6788.815090 -20429.425751 -17771.285906     58.967303
PC16 -20652.864940  28593.956113 -23073.021062   -305.426619
PC19   -202.035606  25815.298788  10595.725808   -932.944734
PC20 -11473.607228  13330.087978  21671.681302   -105.628324
PC21  16806.922526   8426.468281 -20598.077974   -963.389683
PC22  11844.142217  24181.707804  -7284.645824   -131.851651
PC23 -15494.821784 -16288.282331  16522.279822   -786.008401
PC24  22431.802725  -5869.094286  15525.003412    829.340901
PC25   3863.115336 -15850.645952  22624.566404    311.922114
PC26  27198.013513   6333.723904    -91.765913   -240.736932
PC27 -20201.437202   1247.763706 -19235.128320    262.759942
PC28  -8562.372815 -13854.136540 -22653.315920    199.565155
PC29  -9788.386911  23182.328209  12066.037835    233.835818
PC30 -21324.089840  17005.340263  -5972.666744    -18.852284
PC32 -16905.715088  -8412.159901  20568.046703   -559.157331
PC33     78.608133 -25807.334273 -10630.842512   -945.009158
PC34  20863.481534 -17956.090538   4497.297914    356.385610
PC35   9047.723611  13661.034857  22582.483180    447.488313
PC36  -4860.991685  15591.904421 -22615.258026    -36.755782
PC37 -26928.199601  -7244.425765    554.678079   -933.182902
PC38 -10346.296805  20263.767887  35548.916486    133.112225
PC39 -25367.647556  29175.080069 -17035.211347     -6.848269
PC40 -11752.141861  37431.545372 -15064.926945    -53.902556
PC41 -11601.261521 -24534.251627   6578.202315   -883.533907
PC42  12246.793072 -11791.231662 -22089.691901   -460.650709
PC43  10511.216882 -23250.390680 -11278.020498     58.085938
PC44  20123.103277  -1747.744416  19228.732544    366.604788
PC45  15784.129622  16181.100758 -16392.375641    -66.127735
PC46 -21699.018707   6435.087689 -16310.614046   -119.037905
PE02 -22003.290877 -19080.183117  -5234.988556     98.527085
PE03 -12933.751916 -12962.880551  23254.264129    -89.831396
PE04  18471.624962  -9127.035956 -21245.617838   -313.475436
PE05     56.061788 -27192.281482  11695.020617   4714.376394
PE07 -13338.426684  25426.414390   7186.496185   -100.629720
PE08 -18338.848447   8435.310481  21646.349990   -214.593597
PE09  13342.969183 -25392.882234  -7323.846693   -314.740065
PE10  26048.645598 -11284.172472  -8384.275215   -597.391182
PE11  18350.972293 -15462.999415 -17319.879293   3272.151698
PE12  29004.220888  -5798.038442    795.119247   -880.961314
PE13 -18989.595633  15243.732200  16846.575064    -20.017359
PE14  18534.350185  -5419.682987  18395.949827     22.545261
PE15 -29058.511484   5510.132350  -1322.496431    -82.506176
PE18 -17802.662565  -7749.743430 -22970.019208    259.076791
PE19  11498.406768  15234.806848 -22619.545242   -730.233319
PE21  10623.672611  24635.296512 -12523.330582   -576.012098
PE24   7974.562845 -15750.113001  23733.616895   -565.420004
PE25 -10293.914192 -24596.227094  12839.927749      0.068934
PE26   2788.087417  15933.660709  24800.675836    351.555512
PE27  -7501.095496  16090.137192 -23693.251109   -259.889942
PE30 -21129.284742  -2106.734733 -20631.355491   -858.794994
PE31  21012.076215   1858.278132  20768.560396    -14.685294
PE33  21512.289632   7665.034337  18841.929311      6.645071
PE34 -21963.764244  -7280.060367 -18455.649072    -91.338865
PE36  -2022.282573 -15907.377402 -24870.594803   -177.694410
PG01  -6791.646355 -13469.854262 -22233.471481    167.383011
PG02   1437.413923 -15594.609105 -20917.755895   -494.554955
PG03  -9266.227981 -21882.101365 -12129.623265    154.495352
PG04   -115.996426 -23929.626208  11389.952524    276.832989
PG06 -25901.674133   6102.943705    672.544351    429.570064
PG07 -19787.230347  -7713.702186  16721.756409    -47.656921
PG08   4791.381367 -25724.597894  -2989.675320   -164.162513
PG09  -9938.398134 -15059.042352  19389.406726     72.551797
PG10  20421.705645   6552.788089 -15673.888355    -70.978537
PG11 -20732.601720  11879.312852  11571.346178   -555.180164
PG12   7315.310327  22582.685660 -12272.346552   -472.115898
PG13 -13578.541868  22251.597717   4228.960551    619.950424
PG14 -21112.579721  -9850.617355 -12901.202040    310.002953
PG15  -1517.565690  26259.861001  -3215.962228    121.568666
PG16   8824.590783 -12694.737199  21211.066592   -375.388398
PG17 -15192.408609  -1048.024847 -21351.160745    718.745766
PG18  20567.829981   6489.425468  15637.854901   -542.126100
PG19 -17242.978128   8074.962035 -18552.590777    432.412281
PG20 -13131.902622   9070.903796  21268.221378    389.754382
PG21   6269.262065 -16211.892261 -19288.352059    136.998150
PG22 -18560.758720  -3253.842464 -18168.839725     41.082810
PG23  20706.830322  15954.545595  -5224.810388    143.842246
PG24  -2576.519296  16933.286043 -20619.713949   -421.552160
PG25  16787.428247  20593.303348  -3063.903762    486.691257
PG26  16783.304936  -4733.416698  19976.907786    196.267638
PG28  25939.772051  -5147.861005  -2451.332584   -111.776677
PG29   7373.440104  16824.156324  19097.888552   -608.051766
PG30 -25557.171852   -119.058791   7846.257429   -440.192696
PG31  23977.277952  -9769.904406   6600.999195   -227.528503
PG32  15990.527094  -3034.317836 -20751.041522   -608.048409
PJ02 -22251.394218  19720.127820 -25269.491396     -1.488466
PJ03 -29512.442334  29028.986837  12959.931052     -0.200548
PJ04 -24704.669552  29766.905475  22639.797202     78.254561
PR01    517.143457 -24474.677881  -7184.309000     75.622372
PR02  -6739.608756 -22222.610685  10522.510750    -22.440505
PR03 -10989.183495  -7164.373781  21912.777021     93.392038
PR04  -8892.688247  11246.597231  21133.140640    220.870388
PR05  -2275.709965  23785.739181   8981.368256    125.969496
PR07  10986.429442   6380.533382 -22085.764629     74.498912
PR08   8812.634022 -11529.835349 -20905.892553    -74.167183
PR09  16557.803553  14138.445728 -13210.385449    166.723538
PR11  18482.362956   -909.270666  17553.977319     36.261509
PR12    835.741414 -11599.982100  22717.361837     36.087773
PR13 -14617.621941 -14388.594747  15138.561906    -43.738379
PR14 -23733.605184  -8697.325424  -3486.630590     25.990377
PR15 -17545.283218   1772.713105 -18420.267634     82.722605
PR16  -1030.257100  11344.382366 -22818.838416     22.793895
PR17 -18204.001875   2908.410944 -17600.073902     56.136645
PR18 -21687.075570  13142.276173  -2999.071917    124.326680
PR19 -15716.578525  16269.583894  11794.482283   -263.613360
PR20   3150.983770  10220.781077  23173.515250   -107.410778
PR21  18412.121485  -3094.652684  17395.889905    -72.260189
PR22  21902.153712 -12909.889777   1995.937907    105.204098
PR24  -4406.112510 -10103.179564 -22982.580986    -41.555118
PR25  18528.144079  -2040.054014  17430.341214     65.346673
PR26   8997.619922 -10740.512541 -21297.743560   -201.345276
EOF
